DMSP 5D-3 F16 (USA 172) 
1 28054U 03048A   26187.49567321  .00000024  00000+0  36009-4 0  9992
2 28054  98.9886 211.4512 0008217  92.4361  70.5157 14.14484828172210
METEOSAT-9 (MSG-2)      
1 28912U 05049B   26187.22705944  .00000134  00000+0  00000+0 0  9993
2 28912   9.4015  53.9764 0002199   0.5290 357.1641  1.00268436  7187
DMSP 5D-3 F17 (USA 191) 
1 29522U 06050A   26187.47386065  .00000057  00000+0  51804-4 0  9997
2 29522  98.7382 193.6494 0010237   7.9468 352.1866 14.14995793 15157
FENGYUN 3A              
1 32958U 08026A   26187.35979604  .00000091  00000+0  63438-4 0  9997
2 32958  98.6886 127.8346 0009864  74.6100 285.6166 14.19575298938128
GOES 14                 
1 35491U 09033A   26187.60058711 -.00000333  00000+0  00000+0 0  9997
2 35491   1.7366  82.8126 0002055  32.9276 155.4174  1.00102957  6788
DMSP 5D-3 F18 (USA 210) 
1 35951U 09057A   26187.37576054  .00000213  00000+0  13314-3 0  9995
2 35951  98.9048 168.1040 0010704 190.6126 169.4823 14.14907510862304
EWS-G2 (GOES 15)        
1 36411U 10008A   26187.58948358  .00000036  00000+0  00000+0 0  9995
2 36411   1.3275  82.5822 0005322  49.8164  67.8075  1.00268293 59835
COMS 1                  
1 36744U 10032A   26187.36019100 -.00000164  00000+0  00000+0 0  9994
2 36744   4.8511  75.1279 0011544  14.3574 321.6635  0.99169423 51279
FENGYUN 3B              
1 37214U 10059A   26187.62033113  .00000376  00000+0  21758-3 0  9996
2 37214  98.9605 233.7165 0022900 129.8450 344.1811 14.14847635810177
SUOMI NPP               
1 37849U 11061A   26187.51272841  .00000070  00000+0  54374-4 0  9997
2 37849  98.7955 128.2571 0000569 281.4680  78.6432 14.19521359761184
METEOSAT-10 (MSG-3)     
1 38552U 12035B   26187.28959671  .00000005  00000+0  00000+0 0  9998
2 38552   4.7138  60.9235 0001353  18.5021 309.1971  1.00269703 51040
METOP-B                 
1 38771U 12049A   26187.33595346  .00000101  00000+0  65841-4 0  9993
2 38771  98.6494 238.4522 0001149 309.4963  50.6113 14.21444722715980
INSAT-3D                
1 39216U 13038B   26187.55669863 -.00000325  00000+0  00000+0 0  9997
2 39216   1.9729  82.3057 0000534  51.8450 120.3185  1.00273128 47275
FENGYUN 3C              
1 39260U 13052A   26187.54966721  .00000068  00000+0  55865-4 0  9991
2 39260  98.4998 160.5364 0014093 332.2238  27.8183 14.15759337661304
METEOR-M 2              
1 40069U 14037A   26187.57321346 -.00000033  00000+0  42054-5 0  9995
2 40069  98.5129 162.6259 0005708 353.4372   6.6731 14.21466578622077
HIMAWARI-8              
1 40267U 14060A   26187.54003347 -.00000261  00000+0  00000+0 0  9998
2 40267   0.0149  40.4070 0000906  82.0177 137.1769  1.00270059 42958
FENGYUN 2G              
1 40367U 14090A   26187.66065155 -.00000288  00000+0  00000+0 0  9999
2 40367   5.6851  72.5845 0003770 150.1787  39.1843  1.00264654 42196
METEOSAT-11 (MSG-4)     
1 40732U 15034A   26187.29141672  .00000074  00000+0  00000+0 0  9994
2 40732   3.2481  70.9914 0002247 350.5285 336.9460  1.00269073  7409
ELEKTRO-L 2             
1 41105U 15074A   26187.42927926 -.00000106  00000+0  00000+0 0  9999
2 41105   6.7394  70.2876 0000610 247.6736 106.4642  1.00273507 38698
SENTINEL-3A             
1 41335U 16011A   26187.36202567  .00000104  00000+0  61170-4 0  9993
2 41335  98.6241 254.4696 0001412  93.1583 266.9759 14.26738122540796
INSAT-3DR               
1 41752U 16054A   26187.58942228 -.00000062  00000+0  00000+0 0  9996
2 41752   0.0475  89.5622 0010370 181.4899 299.7041  1.00272368 36011
HIMAWARI-9              
1 41836U 16064A   26187.54003347 -.00000260  00000+0  00000+0 0  9996
2 41836   0.0128 293.8708 0001345 213.4391 112.3824  1.00272161 35401
GOES 16                 
1 41866U 16071A   26187.55401759 -.00000076  00000+0  00000+0 0  9992
2 41866   0.3855  85.6575 0000500  62.3915 231.2477  1.00271639 35299
FENGYUN 4A              
1 41882U 16077A   26187.52798700 -.00000343  00000+0  00000+0 0  9995
2 41882   2.3685  80.0749 0008078 157.8339   0.4521  1.00273673 35128
CYGFM05                 
1 41884U 16078A   26187.22137499  .00025774  00000+0  33767-3 0  9991
2 41884  34.9562 134.4688 0007683 314.5929  45.4168 15.57538608531721
CYGFM04                 
1 41885U 16078B   26187.13139866  .00033259  00000+0  35781-3 0  9997
2 41885  34.9321 101.7807 0005840 349.7202  10.3403 15.62650360531967
CYGFM02                 
1 41886U 16078C   26187.15850162  .00040064  00000+0  37913-3 0  9990
2 41886  34.9400  95.5638 0006666 354.1281   5.9367 15.65845080532140
CYGFM01                 
1 41887U 16078D   26187.26568215  .00026325  00000+0  33577-3 0  9994
2 41887  34.9389 135.0751 0007562 309.1565  50.8488 15.58247186531680
CYGFM08                 
1 41888U 16078E   26187.12774630  .00031131  00000+0  35616-3 0  9997
2 41888  34.9424 115.0587 0007984 338.7747  21.2646 15.61061717531938
CYGFM07                 
1 41890U 16078G   26187.14963022  .00031423  00000+0  35818-3 0  9995
2 41890  34.9442 103.2376 0006220 350.8300   9.2312 15.61171459531962
CYGFM03                 
1 41891U 16078H   26187.18469069  .00030928  00000+0  35269-3 0  9991
2 41891  34.9396 104.9358 0006251 337.7456  22.2998 15.61162045531943
