OBJECT_NAME,OBJECT_ID,EPOCH,MEAN_MOTION,ECCENTRICITY,INCLINATION,RA_OF_ASC_NODE,ARG_OF_PERICENTER,MEAN_ANOMALY,EPHEMERIS_TYPE,CLASSIFICATION_TYPE,NORAD_CAT_ID,ELEMENT_SET_NO,REV_AT_EPOCH,BSTAR,MEAN_MOTION_DOT,MEAN_MOTION_DDOT
DMSP 5D-3 F16 (USA 172),2003-048A,2026-07-06T11:53:46.165344,14.14484828,.00082179,98.9886,211.4512,92.4361,70.5157,0,U,28054,999,17221,.36009271E-4,.24E-6,0
METEOSAT-9 (MSG-2),2005-049B,2026-07-06T05:26:57.935616,1.00268436,.00021997,9.4015,53.9764,0.5290,357.1641,0,U,28912,999,718,0,.134E-5,0
DMSP 5D-3 F17 (USA 191),2006-050A,2026-07-06T11:22:21.560160,14.14995793,.00102377,98.7382,193.6494,7.9468,352.1866,0,U,29522,999,1515,.51804411E-4,.57E-6,0
FENGYUN 3A,2008-026A,2026-07-06T08:38:06.377856,14.19575298,.00098643,98.6886,127.8346,74.6100,285.6166,0,U,32958,999,93812,.63438415E-4,.91E-6,0
GOES 14,2009-033A,2026-07-06T14:24:50.726304,1.00102957,.0002055,1.7366,82.8126,32.9276,155.4174,0,U,35491,999,678,0,-.333E-5,0
DMSP 5D-3 F18 (USA 210),2009-057A,2026-07-06T09:01:05.710656,14.14907510,.00107042,98.9048,168.1040,190.6126,169.4823,0,U,35951,999,86230,.13314092E-3,.213E-5,0
EWS-G2 (GOES 15),2010-008A,2026-07-06T14:08:51.381312,1.00268293,.00053225,1.3275,82.5822,49.8164,67.8075,0,U,36411,999,5983,0,.36E-6,0
COMS 1,2010-032A,2026-07-06T08:38:40.502400,0.99169423,.00115442,4.8511,75.1279,14.3574,321.6635,0,U,36744,999,5127,0,-.164E-5,0
FENGYUN 3B,2010-059A,2026-07-06T14:53:16.609632,14.14847635,.00229004,98.9605,233.7165,129.8450,344.1811,0,U,37214,999,81017,.21758381E-3,.376E-5,0
SUOMI NPP,2011-061A,2026-07-06T12:18:19.734624,14.19521359,.00005697,98.7955,128.2571,281.4680,78.6432,0,U,37849,999,76118,.54374332E-4,.7E-6,0
METEOSAT-10 (MSG-3),2012-035B,2026-07-06T06:57:01.155744,1.00269703,.00013537,4.7138,60.9235,18.5021,309.1971,0,U,38552,999,5104,0,.5E-7,0
METOP-B,2012-049A,2026-07-06T08:03:46.378944,14.21444722,.00011499,98.6494,238.4522,309.4963,50.6113,0,U,38771,999,71598,.65840879E-4,.101E-5,0
INSAT-3D,2013-038B,2026-07-06T13:21:38.761632,1.00273128,.00005344,1.9729,82.3057,51.8450,120.3185,0,U,39216,999,4727,0,-.325E-5,0
FENGYUN 3C,2013-052A,2026-07-06T13:11:31.246944,14.15759337,.00140935,98.4998,160.5364,332.2238,27.8183,0,U,39260,999,66130,.55864962E-4,.68E-6,0
METEOR-M 2,2014-037A,2026-07-06T13:45:25.642944,14.21466578,.00057084,98.5129,162.6259,353.4372,6.6731,0,U,40069,999,62207,.4205408E-5,-.33E-6,0
HIMAWARI-8,2014-060A,2026-07-06T12:57:38.891808,1.00270059,.00009061,0.0149,40.4070,82.0177,137.1769,0,U,40267,999,4295,0,-.261E-5,0
FENGYUN 2G,2014-090A,2026-07-06T15:51:20.293920,1.00264654,.00037707,5.6851,72.5845,150.1787,39.1843,0,U,40367,999,4219,0,-.288E-5,0
METEOSAT-11 (MSG-4),2015-034A,2026-07-06T06:59:38.404608,1.00269073,.00022473,3.2481,70.9914,350.5285,336.9460,0,U,40732,999,740,0,.74E-6,0
ELEKTRO-L 2,2015-074A,2026-07-06T10:18:09.728064,1.00273507,.00006107,6.7394,70.2876,247.6736,106.4642,0,U,41105,999,3869,0,-.106E-5,0
SENTINEL-3A,2016-011A,2026-07-06T08:41:19.017888,14.26738122,.00014125,98.6241,254.4696,93.1583,266.9759,0,U,41335,999,54079,.61170453E-4,.104E-5,0
INSAT-3DR,2016-054A,2026-07-06T14:08:46.084992,1.00272368,.00103702,0.0475,89.5622,181.4899,299.7041,0,U,41752,999,3601,0,-.62E-6,0
HIMAWARI-9,2016-064A,2026-07-06T12:57:38.891808,1.00272161,.00013452,0.0128,293.8708,213.4391,112.3824,0,U,41836,999,3540,0,-.26E-5,0
GOES 16,2016-071A,2026-07-06T13:17:47.119776,1.00271639,.00005005,0.3855,85.6575,62.3915,231.2477,0,U,41866,999,3529,0,-.76E-6,0
FENGYUN 4A,2016-077A,2026-07-06T12:40:18.076800,1.00273673,.00080781,2.3685,80.0749,157.8339,0.4521,0,U,41882,999,3512,0,-.343E-5,0
CYGFM05,2016-078A,2026-07-06T05:18:46.799136,15.57538608,.00076837,34.9562,134.4688,314.5929,45.4168,0,U,41884,999,53172,.33767477E-3,.25774E-3,0
CYGFM04,2016-078B,2026-07-06T03:09:12.844224,15.62650360,.000584,34.9321,101.7807,349.7202,10.3403,0,U,41885,999,53196,.35781E-3,.33259E-3,0
CYGFM02,2016-078C,2026-07-06T03:48:14.539968,15.65845080,.00066661,34.9400,95.5638,354.1281,5.9367,0,U,41886,999,53214,.37913118E-3,.40064E-3,0
CYGFM01,2016-078D,2026-07-06T06:22:34.937760,15.58247186,.00075625,34.9389,135.0751,309.1565,50.8488,0,U,41887,999,53168,.33576929E-3,.26325E-3,0
CYGFM08,2016-078E,2026-07-06T03:03:57.280320,15.61061717,.0007984,34.9424,115.0587,338.7747,21.2646,0,U,41888,999,53193,.35616E-3,.31131E-3,0
CYGFM07,2016-078G,2026-07-06T03:35:28.051008,15.61171459,.000622,34.9442,103.2376,350.8300,9.2312,0,U,41890,999,53196,.35818E-3,.31423E-3,0
CYGFM03,2016-078H,2026-07-06T04:25:57.275616,15.61162045,.00062512,34.9396,104.9358,337.7456,22.2998,0,U,41891,999,53194,.35269196E-3,.30928E-3,0
